NORAD_CAT_ID,OBJECT_NAME,OBJECT_TYPE,EPOCH,MEAN_MOTION,ECCENTRICITY,INCLINATION,RA_OF_ASC_NODE,ARG_OF_PERICENTER,MEAN_ANOMALY,BSTAR,MEAN_MOTION_DOT,MEAN_MOTION_DDOT,TLE_LINE0,TLE_LINE1,TLE_LINE2,SEMIMAJOR_AXIS,PERIOD,APOGEE,PERIGEE,DECAYED
56796.0,STARLINK-6049,PAYLOAD,2024-07-17 00:33:00,14.98345006,0.0002941,70.0001,59.053,270.0356,90.0466,0.00016127,1.832e-05,0.0,0 STARLINK-6049,1 56796U 23078AF  24199.02292649  .00001832  00000-0  16127-3 0  9996,2 56796  70.0001  59.0530 0002941 270.0356  90.0466 14.98345006 62962,6950.146,96.106,574.056,569.967,0.0
56796.0,STARLINK-6049,PAYLOAD,2024-07-17 08:33:42,14.9833254,0.0002278,70.002,58.2115,280.0584,80.0318,5.9797e-05,6.21e-06,0.0,0 STARLINK-6049,1 56796U 23078AF  24199.35673803  .00000621  00000-0  59797-4 0  9993,2 56796  70.0020  58.2115 0002278 280.0584  80.0318 14.98332540 63011,6950.185,96.107,573.633,570.467,0.0
56796.0,STARLINK-6049,PAYLOAD,2024-07-17 14:58:14,14.98327185,0.0002815,70.0007,57.5382,272.7191,87.3645,0.0001217,1.359e-05,0.0,0 STARLINK-6049,1 56796U 23078AF  24199.62377907  .00001359  00000-0  12170-3 0  9991,2 56796  70.0007  57.5382 0002815 272.7191  87.3645 14.98327185 62799,6950.202,96.107,574.023,570.11,0.0
56796.0,STARLINK-6049,PAYLOAD,2024-07-17 19:46:38,14.98325154,0.0003034,69.9999,57.0327,269.8052,90.276,0.00010035,1.104e-05,0.0,0 STARLINK-6049,1 56796U 23078AF  24199.82406168  .00001104  00000-0  10035-3 0  9991,2 56796  69.9999  57.0327 0003034 269.8052  90.2760 14.98325154 63085,6950.208,96.107,574.182,569.964,0.0
56796.0,STARLINK-6049,PAYLOAD,2024-07-17 21:22:47,14.98324303,0.0003092,69.9999,56.8645,269.6525,90.428,8.482e-05,9.19e-06,0.0,0 STARLINK-6049,1 56796U 23078AF  24199.89082283  .00000919  00000-0  84820-4 0  9993,2 56796  69.9999  56.8645 0003092 269.6525  90.4280 14.98324303 62838,6950.211,96.107,574.225,569.927,0.0
56796.0,STARLINK-6049,PAYLOAD,2024-07-18 00:35:03,14.98326098,0.0003005,70.0001,56.5279,270.2814,89.8001,0.00010786,1.194e-05,0.0,0 STARLINK-6049,1 56796U 23078AF  24200.02434256  .00001194  00000-0  10786-3 0  9997,2 56796  70.0001  56.5279 0003005 270.2814  89.8001 14.98326098 62856,6950.205,96.107,574.158,569.981,0.0
56796.0,STARLINK-6049,PAYLOAD,2024-07-18 19:48:39,14.98335821,0.0003039,70.0002,54.5078,269.6555,90.4255,1.9851e-06,-6.9e-07,0.0,0 STARLINK-6049,1 56796U 23078AF  24200.82545823 -.00000069  00000-0  19851-5 0  9993,2 56796  70.0002  54.5078 0003039 269.6555  90.4255 14.98335821 63239,6950.175,96.107,574.152,569.928,0.0
56796.0,STARLINK-6049,PAYLOAD,2024-07-18 21:24:47,14.98335004,0.0002953,70.0004,54.3398,267.371,92.7111,8.652e-06,1e-07,0.0,0 STARLINK-6049,1 56796U 23078AF  24200.89221846  .00000010  00000-0  86520-5 0  9998,2 56796  70.0004  54.3398 0002953 267.3710  92.7111 14.98335004 62986,6950.177,96.107,574.095,569.99,0.0
56796.0,STARLINK-6049,PAYLOAD,2024-07-19 15:02:16,14.98327557,0.0003203,70.0003,52.4881,271.2604,88.8189,0.00016035,1.821e-05,0.0,0 STARLINK-6049,1 56796U 23078AF  24201.62657746  .00001821  00000-0  16035-3 0  9995,2 56796  70.0003  52.4881 0003203 271.2604  88.8189 14.98327557 63094,6950.2,96.107,574.292,569.839,0.0
56796.0,STARLINK-6049,PAYLOAD,2024-07-19 19:50:40,14.98328585,0.0003188,70.0003,51.983,270.4159,89.6635,0.00014425,1.629e-05,0.0,0 STARLINK-6049,1 56796U 23078AF  24201.82685765  .00001629  00000-0  14425-3 0  9996,2 56796  70.0003  51.9830 0003188 270.4159  89.6635 14.98328585 63389,6950.197,96.107,574.278,569.847,0.0
56796.0,STARLINK-6049,PAYLOAD,2024-07-19 21:26:48,14.98323954,0.0003164,70.0003,51.8146,269.6663,90.4133,0.00025202,2.915e-05,0.0,0 STARLINK-6049,1 56796U 23078AF  24201.89361863  .00002915  00000-0  25202-3 0  9997,2 56796  70.0003  51.8146 0003164 269.6663  90.4133 14.98323954 63133,6950.212,96.107,574.276,569.878,0.0
56796.0,STARLINK-6049,PAYLOAD,2024-07-20 15:04:17,14.98331268,0.0002988,70.0008,49.9639,264.5051,95.5767,9.0065e-05,9.82e-06,0.0,0 STARLINK-6049,1 56796U 23078AF  24202.62797725  .00000982  00000-0  90065-4 0  9991,2 56796  70.0008  49.9639 0002988 264.5051  95.5767 14.98331268 63249,6950.189,96.107,574.131,569.977,0.0
56796.0,STARLINK-6049,PAYLOAD,2024-07-20 19:52:41,14.98330961,0.0003021,70.0008,49.4585,266.2981,93.7833,7.8174e-05,8.4e-06,0.0,0 STARLINK-6049,1 56796U 23078AF  24202.82825764  .00000840  00000-0  78174-4 0  9998,2 56796  70.0008  49.4585 0003021 266.2981  93.7833 14.98330961 63539,6950.19,96.107,574.155,569.955,0.0
56796.0,STARLINK-6049,PAYLOAD,2024-07-20 21:28:49,14.98331258,0.0003017,70.0008,49.2902,266.496,93.5854,7.949e-05,8.56e-06,0.0,0 STARLINK-6049,1 56796U 23078AF  24202.89501737  .00000856  00000-0  79490-4 0  9995,2 56796  70.0008  49.2902 0003017 266.4960  93.5854 14.98331258 63287,6950.189,96.107,574.151,569.957,0.0
56796.0,STARLINK-6049,PAYLOAD,2024-07-21 15:06:18,14.98313694,0.0003,70.0009,47.4384,262.1781,97.9037,0.00037644,4.4e-05,0.0,0 STARLINK-6049,1 56796U 23078AF  24203.62937962  .00004400  00000-0  37644-3 0  9993,2 56796  70.0009  47.4384 0003000 262.1781  97.9037 14.98313694 63395,6950.243,96.108,574.193,570.023,0.0
56796.0,STARLINK-6049,PAYLOAD,2024-07-21 19:54:43,14.9830538,0.0003005,70.0008,46.9334,263.9304,96.1513,0.0004736,5.559e-05,0.0,0 STARLINK-6049,1 56796U 23078AF  24203.82966452  .00005559  00000-0  47360-3 0  9993,2 56796  70.0008  46.9334 0003005 263.9304  96.1513 14.98305380 63683,6950.269,96.109,574.223,570.045,0.0
56796.0,STARLINK-6049,PAYLOAD,2024-07-21 21:30:50,14.98330859,0.0003189,70.0005,46.7656,267.43,92.6494,3.6922e-05,3.48e-06,0.0,0 STARLINK-6049,1 56796U 23078AF  24203.89641764  .00000348  00000-0  36922-4 0  9990,2 56796  70.0005  46.7656 0003189 267.4300  92.6494 14.98330859 63434,6950.19,96.107,574.272,569.839,0.0
56796.0,STARLINK-6049,PAYLOAD,2024-07-21 23:06:58,14.98328368,0.0003122,70.0008,46.5968,264.9784,95.1018,8.6421e-05,9.38e-06,0.0,0 STARLINK-6049,1 56796U 23078AF  24203.96317819  .00000938  00000-0  86421-4 0  9993,2 56796  70.0008  46.5968 0003122 264.9784  95.1018 14.98328368 63708,6950.198,96.107,574.233,569.893,0.0
56796.0,STARLINK-6049,PAYLOAD,2024-07-22 13:32:11,14.98330033,0.0003225,70.0005,45.0828,269.5373,90.5417,4.2883e-05,4.19e-06,0.0,0 STARLINK-6049,1 56796U 23078AF  24204.56401779  .00000419  00000-0  42883-4 0  9997,2 56796  70.0005  45.0828 0003225 269.5373  90.5417 14.98330033 63538,6950.193,96.107,574.299,569.816,0.0
56796.0,STARLINK-6049,PAYLOAD,2024-07-22 21:32:50,14.98336614,0.000323,70.0006,44.2413,270.7159,89.363,0.00011318,1.258e-05,0.0,0 STARLINK-6049,1 56796U 23078AF  24204.89781222  .00001258  00000-0  11318-3 0  9997,2 56796  70.0006  44.2413 0003230 270.7159  89.3630 14.98336614 63581,6950.172,96.107,574.282,569.793,0.0
56796.0,STARLINK-6049,PAYLOAD,2024-07-22 23:08:59,14.9833175,0.0003041,70.0006,44.0727,267.2332,92.8479,0.00019552,2.241e-05,0.0,0 STARLINK-6049,1 56796U 23078AF  24204.96457372  .00002241  00000-0  19552-3 0  9992,2 56796  70.0006  44.0727 0003041 267.2332  92.8479 14.98331750 63857,6950.187,96.107,574.166,569.939,0.0
56796.0,STARLINK-6049,PAYLOAD,2024-07-23 11:58:04,14.98298442,0.0003221,70.0008,42.7239,265.3229,94.7562,0.0006777,7.996e-05,0.0,0 STARLINK-6049,1 56796U 23078AF  24205.49866243  .00007996  00000-0  67770-3 0  9999,2 56796  70.0008  42.7239 0003221 265.3229  94.7562 14.98298442 63939,6950.29,96.109,574.394,569.917,0.0
56796.0,STARLINK-6049,PAYLOAD,2024-07-23 23:11:00,14.98330536,0.0003076,70.0008,41.5455,266.6888,93.3919,7.678e-05,8.23e-06,0.0,0 STARLINK-6049,1 56796U 23078AF  24205.96597635  .00000823  00000-0  76780-4 0  9991,2 56796  70.0008  41.5455 0003076 266.6888  93.3919 14.98330536 64000,6950.191,96.107,574.194,569.918,0.0
56796.0,STARLINK-6049,PAYLOAD,2024-07-24 23:13:01,14.98333799,0.0002988,70.0022,39.0198,264.2562,95.8256,3.5131e-05,3.26e-06,0.0,0 STARLINK-6049,1 56796U 23078AF  24206.96737441  .00000326  00000-0  35131-4 0  9996,2 56796  70.0022  39.0198 0002988 264.2562  95.8256 14.98333799 64157,6950.181,96.107,574.123,569.969,0.0
56796.0,STARLINK-6049,PAYLOAD,2024-07-25 21:38:54,14.98328366,0.0003075,70.0002,36.6646,272.3231,87.7576,4.3577e-05,4.27e-06,0.0,0 STARLINK-6049,1 56796U 23078AF  24207.90201735  .00000427  00000-0  43577-4 0  9998,2 56796  70.0002  36.6646 0003075 272.3231  87.7576 14.98328366 64033,6950.198,96.107,574.2,569.926,0.0
56796.0,STARLINK-6049,PAYLOAD,2024-07-25 23:15:02,14.98329008,0.0003048,70.0006,36.4962,272.5697,87.5113,4.9488e-05,4.98e-06,0.0,0 STARLINK-6049,1 56796U 23078AF  24207.96877691  .00000498  00000-0  49488-4 0  9999,2 56796  70.0006  36.4962 0003048 272.5697  87.5113 14.98329008 64303,6950.196,96.107,574.179,569.943,0.0
56796.0,STARLINK-6049,PAYLOAD,2024-07-26 12:04:07,14.98327132,0.0002884,70.0015,35.1497,271.8626,88.2203,3.3086e-05,3.02e-06,0.0,0 STARLINK-6049,1 56796U 23078AF  24208.50285896  .00000302  00000-0  33086-4 0  9991,2 56796  70.0015  35.1497 0002884 271.8626  88.2203 14.98327132 64127,6950.202,96.107,574.071,570.062,0.0
56796.0,STARLINK-6049,PAYLOAD,2024-07-26 18:28:39,14.98327586,0.0002909,70.0013,34.4768,270.2649,89.8177,3.3334e-05,3.05e-06,0.0,0 STARLINK-6049,1 56796U 23078AF  24208.76989892  .00000305  00000-0  33334-4 0  9995,2 56796  70.0013  34.4768 0002909 270.2649  89.8177 14.98327586 64168,6950.2,96.107,574.087,570.044,0.0
56796.0,STARLINK-6049,PAYLOAD,2024-07-27 05:41:35,14.98326279,0.0002977,70.0009,33.2986,271.1823,88.8995,1.8881e-05,1.32e-06,0.0,0 STARLINK-6049,1 56796U 23078AF  24209.23722104  .00000132  00000-0  18881-4 0  9997,2 56796  70.0009  33.2986 0002977 271.1823  88.8995 14.98326279 64492,6950.204,96.107,574.138,570.0,0.0
56796.0,STARLINK-6049,PAYLOAD,2024-07-27 21:42:56,14.98332573,0.0003114,70.0002,31.6155,270.9552,89.125,8.477e-05,9.19e-06,0.0,0 STARLINK-6049,1 56796U 23078AF  24209.90481528  .00000919  00000-0  84770-4 0  9996,2 56796  70.0002  31.6155 0003114 270.9552  89.1250 14.98332573 64330,6950.185,96.107,574.214,569.886,0.0
